{
  "type": "FeatureCollection",
  "features": [
    {
      "type": "Feature",
      "properties": {
        "norad_id": 66397,
        "name": "STARLINK-35510",
        "group": "last-30-days",
        "lat": 24.823856783980006,
        "lon": -49.182429650701565,
        "alt_km": 441.09184537571764,
        "timestamp": "2025-12-07T03:52:31.202341+00:00",
        "meta_object_name": "STARLINK-35510",
        "meta_object_id": "2025-257T",
        "meta_epoch": "2025-12-06T14:00:01.999872",
        "meta_mean_motion": 15.43196158,
        "meta_eccentricity": 0.00010478,
        "meta_inclination": 53.1594,
        "meta_ra_of_asc_node": 293.2597,
        "meta_arg_of_pericenter": 84.292,
        "meta_mean_anomaly": 336.6187,
        "meta_ephemeris_type": 0,
        "meta_classification_type": "U",
        "meta_norad_cat_id": 66397,
        "meta_element_set_no": 999,
        "meta_rev_at_epoch": 550,
        "meta_bstar": -0.051411688,
        "meta_mean_motion_dot": -0.02057867,
        "meta_mean_motion_ddot": 0,
        "tle_line1": "1 66397U 25257T   25340.58335648 -.02057867  00000+0 -51412-1 0  9998",
        "tle_line2": "2 66397  53.1594 293.2597 0001047  84.2920 336.6187 15.43196158  5501"
      },
      "geometry": {
        "type": "Point",
        "coordinates": [
          -49.182429650701565,
          24.823856783980006
        ]
      }
    },
    {
      "type": "Feature",
      "properties": {
        "norad_id": 66398,
        "name": "STARLINK-35642",
        "group": "last-30-days",
        "lat": 43.57193024526996,
        "lon": -24.03012650024716,
        "alt_km": 417.73341728530795,
        "timestamp": "2025-12-07T03:52:31.202352+00:00",
        "meta_object_name": "STARLINK-35642",
        "meta_object_id": "2025-257U",
        "meta_epoch": "2025-12-06T04:22:47.917920",
        "meta_mean_motion": 15.48674632,
        "meta_eccentricity": 9.202e-05,
        "meta_inclination": 53.1592,
        "meta_ra_of_asc_node": 295.1428,
        "meta_arg_of_pericenter": 161.1871,
        "meta_mean_anomaly": 198.9172,
        "meta_ephemeris_type": 0,
        "meta_classification_type": "U",
        "meta_norad_cat_id": 66398,
        "meta_element_set_no": 999,
        "meta_rev_at_epoch": 536,
        "meta_bstar": -0.0089627224,
        "meta_mean_motion_dot": -0.00460233,
        "meta_mean_motion_ddot": 0,
        "tle_line1": "1 66398U 25257U   25340.18249905 -.00460233  00000+0 -89627-2 0  9998",
        "tle_line2": "2 66398  53.1592 295.1428 0000920 161.1871 198.9172 15.48674632  5363"
      },
      "geometry": {
        "type": "Point",
        "coordinates": [
          -24.03012650024716,
          43.57193024526996
        ]
      }
    },
    {
      "type": "Feature",
      "properties": {
        "norad_id": 66399,
        "name": "STARLINK-35657",
        "group": "last-30-days",
        "lat": 26.338110554886445,
        "lon": -47.690973903255305,
        "alt_km": 441.7529633673548,
        "timestamp": "2025-12-07T03:52:31.202362+00:00",
        "meta_object_name": "STARLINK-35657",
        "meta_object_id": "2025-257V",
        "meta_epoch": "2025-12-06T14:00:01.999872",
        "meta_mean_motion": 15.42918804,
        "meta_eccentricity": 8.55e-05,
        "meta_inclination": 53.159,
        "meta_ra_of_asc_node": 293.2545,
        "meta_arg_of_pericenter": 109.999,
        "meta_mean_anomaly": 313.4601,
        "meta_ephemeris_type": 0,
        "meta_classification_type": "U",
        "meta_norad_cat_id": 66399,
        "meta_element_set_no": 999,
        "meta_rev_at_epoch": 550,
        "meta_bstar": -0.050808869,
        "meta_mean_motion_dot": -0.02019289,
        "meta_mean_motion_ddot": 0,
        "tle_line1": "1 66399U 25257V   25340.58335648 -.02019289  00000+0 -50809-1 0  9995",
        "tle_line2": "2 66399  53.1590 293.2545 0000855 109.9990 313.4601 15.42918804  5503"
      },
      "geometry": {
        "type": "Point",
        "coordinates": [
          -47.690973903255305,
          26.338110554886445
        ]
      }
    },
    {
      "type": "Feature",
      "properties": {
        "norad_id": 66400,
        "name": "STARLINK-35667",
        "group": "last-30-days",
        "lat": 48.6696854624397,
        "lon": -11.06777432577382,
        "alt_km": 411.5156199781013,
        "timestamp": "2025-12-07T03:52:31.202373+00:00",
        "meta_object_name": "STARLINK-35667",
        "meta_object_id": "2025-257W",
        "meta_epoch": "2025-12-06T04:21:09.466848",
        "meta_mean_motion": 15.49356007,
        "meta_eccentricity": 0.00018529,
        "meta_inclination": 53.1592,
        "meta_ra_of_asc_node": 295.135,
        "meta_arg_of_pericenter": 118.9172,
        "meta_mean_anomaly": 241.2023,
        "meta_ephemeris_type": 0,
        "meta_classification_type": "U",
        "meta_norad_cat_id": 66400,
        "meta_element_set_no": 999,
        "meta_rev_at_epoch": 536,
        "meta_bstar": -0.00068117353,
        "meta_mean_motion_dot": -0.00038213,
        "meta_mean_motion_ddot": 0,
        "tle_line1": "1 66400U 25257W   25340.18135957 -.00038213  00000+0 -68117-3 0  9994",
        "tle_line2": "2 66400  53.1592 295.1350 0001852 118.9172 241.2023 15.49356007  5361"
      },
      "geometry": {
        "type": "Point",
        "coordinates": [
          -11.06777432577382,
          48.6696854624397
        ]
      }
    },
    {
      "type": "Feature",
      "properties": {
        "norad_id": 66401,
        "name": "STARLINK-35668",
        "group": "last-30-days",
        "lat": 48.037546067510114,
        "lon": -13.057871898268186,
        "alt_km": 418.853837889038,
        "timestamp": "2025-12-07T03:52:31.202385+00:00",
        "meta_object_name": "STARLINK-35668",
        "meta_object_id": "2025-257X",
        "meta_epoch": "2025-12-06T08:00:01.999872",
        "meta_mean_motion": 15.49728436,
        "meta_eccentricity": 0.00015575,
        "meta_inclination": 53.1587,
        "meta_ra_of_asc_node": 294.4065,
        "meta_arg_of_pericenter": 90.2703,
        "meta_mean_anomaly": 39.9269,
        "meta_ephemeris_type": 0,
        "meta_classification_type": "U",
        "meta_norad_cat_id": 66401,
        "meta_element_set_no": 999,
        "meta_rev_at_epoch": 546,
        "meta_bstar": -0.033578695,
        "meta_mean_motion_dot": -0.01694206,
        "meta_mean_motion_ddot": 0,
        "tle_line1": "1 66401U 25257X   25340.33335648 -.01694206  00000+0 -33579-1 0  9994",
        "tle_line2": "2 66401  53.1587 294.4065 0001557  90.2703  39.9269 15.49728436  5469"
      },
      "geometry": {
        "type": "Point",
        "coordinates": [
          -13.057871898268186,
          48.037546067510114
        ]
      }
    },
    {
      "type": "Feature",
      "properties": {
        "norad_id": 66402,
        "name": "STARLINK-35644",
        "group": "last-30-days",
        "lat": 49.603941704061256,
        "lon": -7.7818696152485645,
        "alt_km": 410.85475717861027,
        "timestamp": "2025-12-07T03:52:31.202396+00:00",
        "meta_object_name": "STARLINK-35644",
        "meta_object_id": "2025-257Y",
        "meta_epoch": "2025-12-06T05:53:33.843840",
        "meta_mean_motion": 15.49361286,
        "meta_eccentricity": 7.923e-05,
        "meta_inclination": 53.1581,
        "meta_ra_of_asc_node": 294.8244,
        "meta_arg_of_pericenter": 85.5717,
        "meta_mean_anomaly": 274.5382,
        "meta_ephemeris_type": 0,
        "meta_classification_type": "U",
        "meta_norad_cat_id": 66402,
        "meta_element_set_no": 999,
        "meta_rev_at_epoch": 537,
        "meta_bstar": 0.0018840832,
        "meta_mean_motion_dot": 0.00105964,
        "meta_mean_motion_ddot": 0,
        "tle_line1": "1 66402U 25257Y   25340.24553060  .00105964  00000+0  18841-2 0  9996",
        "tle_line2": "2 66402  53.1581 294.8244 0000792  85.5717 274.5382 15.49361286  5378"
      },
      "geometry": {
        "type": "Point",
        "coordinates": [
          -7.7818696152485645,
          49.603941704061256
        ]
      }
    },
    {
      "type": "Feature",
      "properties": {
        "norad_id": 66403,
        "name": "STARLINK-35602",
        "group": "last-30-days",
        "lat": 50.41267298839238,
        "lon": -4.509479883097464,
        "alt_km": 410.2397894012065,
        "timestamp": "2025-12-07T03:52:31.202411+00:00",
        "meta_object_name": "STARLINK-35602",
        "meta_object_id": "2025-257Z",
        "meta_epoch": "2025-12-06T04:20:10.783968",
        "meta_mean_motion": 15.49424028,
        "meta_eccentricity": 0.00014724,
        "meta_inclination": 53.1591,
        "meta_ra_of_asc_node": 295.1307,
        "meta_arg_of_pericenter": 117.2823,
        "meta_mean_anomaly": 242.8336,
        "meta_ephemeris_type": 0,
        "meta_classification_type": "U",
        "meta_norad_cat_id": 66403,
        "meta_element_set_no": 999,
        "meta_rev_at_epoch": 536,
        "meta_bstar": 0.0022222457,
        "meta_mean_motion_dot": 0.0012566,
        "meta_mean_motion_ddot": 0,
        "tle_line1": "1 66403U 25257Z   25340.18068037  .00125660  00000+0  22222-2 0  9998",
        "tle_line2": "2 66403  53.1591 295.1307 0001472 117.2823 242.8336 15.49424028  5361"
      },
      "geometry": {
        "type": "Point",
        "coordinates": [
          -4.509479883097464,
          50.41267298839238
        ]
      }
    }
  ]
}